{
    "links": {
        "self": "http://www.neowsapp.com/rest/v1/neo/54073365?api_key=iIulBulltgU6a56xZRHN4H3l9WmuAYTsLGpBGhQ2"
    },
    "id": "54073365",
    "neo_reference_id": "54073365",
    "name": "(2020 UT)",
    "designation": "2020 UT",
    "nasa_jpl_url": "http://ssd.jpl.nasa.gov/sbdb.cgi?sstr=54073365",
    "absolute_magnitude_h": 27.293,
    "estimated_diameter": {
        "kilometers": {
            "estimated_diameter_min": 0.0092460232,
            "estimated_diameter_max": 0.0206747363
        },
        "meters": {
            "estimated_diameter_min": 9.2460231527,
            "estimated_diameter_max": 20.6747362909
        },
        "miles": {
            "estimated_diameter_min": 0.0057452107,
            "estimated_diameter_max": 0.0128466816
        },
        "feet": {
            "estimated_diameter_min": 30.3347226002,
            "estimated_diameter_max": 67.8305018127
        }
    },
    "is_potentially_hazardous_asteroid": false,
    "close_approach_data": [
        {
            "close_approach_date": "2020-10-20",
            "close_approach_date_full": "2020-Oct-20 00:22",
            "epoch_date_close_approach": 1603153320000,
            "relative_velocity": {
                "kilometers_per_second": "6.9888654751",
                "kilometers_per_hour": "25159.9157103889",
                "miles_per_hour": "15633.3931812692"
            },
            "miss_distance": {
                "astronomical": "0.0504508457",
                "lunar": "19.6253789773",
                "kilometers": "7547339.056418659",
                "miles": "4689699.0254251342"
            },
            "orbiting_body": "Earth"
        }
    ],
    "orbital_data": {
        "orbit_id": "1",
        "orbit_determination_date": "2020-10-18 00:12:31",
        "first_observation_date": "2020-10-15",
        "last_observation_date": "2020-10-18",
        "data_arc_in_days": 3,
        "observations_used": 18,
        "orbit_uncertainty": "8",
        "minimum_orbit_intersection": ".0501601",
        "jupiter_tisserand_invariant": "3.128",
        "epoch_osculation": "2459138.5",
        "eccentricity": ".5992514818431049",
        "semi_major_axis": "2.607930556272844",
        "inclination": "1.717848900588245",
        "ascending_node_longitude": "207.3002709507808",
        "orbital_period": "1538.305033710061",
        "perihelion_distance": "1.045124305882429",
        "perihelion_argument": "183.6587197104828",
        "aphelion_distance": "4.170736806663259",
        "perihelion_time": "2459145.878018492746",
        "mean_anomaly": "358.2733680257272",
        "mean_motion": ".2340238067945193",
        "equinox": "J2000",
        "orbit_class": {
            "orbit_class_type": "AMO",
            "orbit_class_description": "Near-Earth asteroid orbits similar to that of 1221 Amor",
            "orbit_class_range": "1.017 AU < q (perihelion) < 1.3 AU"
        }
    },
    "is_sentry_object": false
}